GLOBALSTAR M068         
1 32266U 07048D   25289.33742712 -.00000050  00000+0  29838-3 0  9991
2 32266  51.9884 292.9489 0001348  49.0527  55.6486 12.62830974832865
GLOBALSTAR M079         
1 37188U 10054A   25290.21000183 -.00000105  00000+0 -59142-5 0  9993
2 37188  52.0015 128.3292 0000882 105.7630   3.2496 12.62267780691864
GLOBALSTAR M074         
1 37189U 10054B   25290.15929764 -.00000080  00000+0  12998-3 0  9999
2 37189  51.9993 127.7873 0000810  83.2307  34.8301 12.62272592692467
GLOBALSTAR M076         
1 37190U 10054C   25290.11454030 -.00000060  00000+0  24286-3 0  9997
2 37190  52.0006 128.1068 0000622  96.6957  57.0688 12.62266608692171
GLOBALSTAR M077         
1 37191U 10054D   25290.05016499 -.00000089  00000+0  52956-4 0  9991
2 37191  52.0060  87.6645 0002003  39.3445  78.9356 12.36452486692517
GLOBALSTAR M075         
1 37192U 10054E   25289.41871211 -.00000092  00000+0  65123-4 0  9995
2 37192  51.9931 172.4143 0000825  74.5897  96.7168 12.62268867691156
GLOBALSTAR M073         
1 37193U 10054F   25290.21081825 -.00000100  00000+0  22878-4 0  9990
2 37193  52.0052  83.9125 0000790 113.7889  57.7951 12.62263591693245
GLOBALSTAR M083         
1 37739U 11033A   25289.55532685 -.00000088  00000+0  87118-4 0  9997
2 37739  51.9878  34.4705 0000761 117.7403 255.4375 12.62276894662180
GLOBALSTAR M088         
1 37740U 11033B   25290.17660090 -.00000074  00000+0  16741-3 0  9999
2 37740  52.0217 298.4219 0000447  73.6437   2.5772 12.62268944657803
GLOBALSTAR M091         
1 37741U 11033C   25290.17585024 -.00000088  00000+0  87788-4 0  9998
2 37741  51.9988 261.7464 0000612  78.7651 294.7222 12.62260632658598
GLOBALSTAR M085         
1 37742U 11033D   25290.19223616 -.00000094  00000+0  51776-4 0  9992
2 37742  52.0117 212.7767 0000815  82.0304  65.8483 12.62265723659105
GLOBALSTAR M081         
1 37743U 11033E   25290.21856449 -.00000103  00000+0  50387-5 0  9991
2 37743  51.9951 215.4094 0000580  80.2473  66.9996 12.62269254659259
GLOBALSTAR M089         
1 37744U 11033F   25289.39220286 -.00000095  00000+0  50184-4 0  9997
2 37744  51.9915 172.1307 0000543  58.4026 112.6156 12.62272225659996
GLOBALSTAR M084         
1 38040U 11080A   25289.60834012 -.00000101  00000+0  14673-4 0  9992
2 38040  52.0030  38.8216 0000323  99.7589 273.6471 12.62269414638004
GLOBALSTAR M080         
1 38041U 11080B   25289.57990314 -.00000097  00000+0  36050-4 0  9994
2 38041  52.0078  40.5425 0001117  95.7958 277.5602 12.62269670638123
GLOBALSTAR M082         
1 38042U 11080C   25289.43675145 -.00000083  00000+0  11487-3 0  9993
2 38042  52.0103 356.4549 0000821 103.7580 269.4107 12.62263760638811
GLOBALSTAR M092         
1 38043U 11080D   25290.15804541 -.00000085  00000+0  10272-3 0  9992
2 38043  52.0071  84.6405 0000825  95.8400  75.6522 12.62267047637351
GLOBALSTAR M090         
1 38044U 11080E   25289.46339698 -.00000080  00000+0  13186-3 0  9993
2 38044  52.0147 350.2518 0000574 118.9903 254.4552 12.62262862638934
GLOBALSTAR M086         
1 38045U 11080F   25290.20579159 -.00000072  00000+0  17462-3 0  9998
2 38045  51.9922 348.3174 0000829 205.7125 189.1513 12.62278265638973
GLOBALSTAR M097         
1 39072U 13005A   25290.06728465 -.00000102  00000+0  77478-5 0  9997
2 39072  52.0043 263.4154 0000400  89.3337 270.7576 12.62266506586200
GLOBALSTAR M093         
1 39073U 13005B   25290.19964640 -.00000095  00000+0  48584-4 0  9995
2 39073  52.0096 256.2672 0000516 106.5598 253.5325 12.62265323586176
GLOBALSTAR M094         
1 39074U 13005C   25289.09075307 -.00000091  00000+0  71272-4 0  9992
2 39074  51.9945 174.0015 0000812  91.6167 268.4793 12.62264365587643
GLOBALSTAR M096         
1 39075U 13005D   25289.49987459 -.00000099  00000+0  29320-4 0  9992
2 39075  52.0065 221.3640 0000713  85.3739 274.7209 12.62267650586612
GLOBALSTAR M078         
1 39076U 13005E   25289.31556936 -.00000072  00000+0  17780-3 0  9993
2 39076  51.9876 306.2754 0001268  87.2429 272.8583 12.62261253585215
GLOBALSTAR M095         
1 39077U 13005F   25289.34157439 -.00000073  00000+0  17159-3 0  9993
2 39077  52.0083 303.4526 0000779 108.2045 251.8907 12.62260865585077
GLOBALSTAR M087         
1 52888U 22064A   25290.14660413 -.00000087  00000+0  93255-4 0  9991
2 52888  51.9987  82.3750 0000998 108.7534 251.3441 12.62289416160447
